OBJECT_NAME,OBJECT_ID,EPOCH,MEAN_MOTION,ECCENTRICITY,INCLINATION,RA_OF_ASC_NODE,ARG_OF_PERICENTER,MEAN_ANOMALY,EPHEMERIS_TYPE,CLASSIFICATION_TYPE,NORAD_CAT_ID,ELEMENT_SET_NO,REV_AT_EPOCH,BSTAR,MEAN_MOTION_DOT,MEAN_MOTION_DDOT
ASNARO-2,2018-007A,2026-06-04T23:03:28.706688,15.22405189,.00018277,97.3975,163.0788,90.1258,270.0188,0,U,43152,999,46555,.47849407E-3,.10994E-3,0
JILIN-1 07,2018-008E,2026-06-04T21:35:26.088864,15.34509179,.00102407,97.1773,176.1576,100.8461,259.3935,0,U,43159,999,46311,.30532081E-3,.10149E-3,0
JILIN-1 08,2018-008F,2026-06-04T22:58:26.030208,15.33560186,.0007937,97.1806,175.5426,113.2092,246.9988,0,U,43160,999,46307,.2070716E-3,.6648E-4,0
LEMUR-2-KADI,2018-014E,2026-06-04T00:01:13.494432,16.29437538,.00107518,97.4308,86.5413,218.5886,141.4640,0,U,43184,999,45900,.13546809E-2,.5670531E-1,.2523326E-5
S-NET D,2018-014G,2026-06-04T17:28:28.045632,15.16550561,.00098871,97.5370,60.5972,67.4587,292.7691,0,U,43186,999,45687,.30568704E-3,.5903E-4,0
S-NET B,2018-014H,2026-06-04T16:09:35.796672,15.16520086,.00104264,97.5376,60.5288,63.4642,296.7659,0,U,43187,999,45686,.3329954E-3,.6432E-4,0
S-NET A,2018-014J,2026-06-04T17:26:56.757120,15.16558138,.00103873,97.5386,60.7888,63.5981,296.6317,0,U,43188,999,45687,.30203737E-3,.5834E-4,0
S-NET C,2018-014K,2026-06-04T16:15:05.170752,15.16511330,.00115551,97.5402,60.8120,56.9894,303.2448,0,U,43189,999,45541,.33098577E-3,.6393E-4,0
PAZ,2018-020A,2026-06-04T23:41:38.114880,15.19150528,.00016401,97.4454,163.5465,85.0671,275.0750,0,U,43215,999,45915,.60213371E-4,.1198E-4,0
GOES 17,2018-022A,2026-06-04T21:41:34.495008,1.00271536,.00007374,0.9062,85.9394,6.9647,36.3448,0,U,43226,999,3030,0,-.17E-5,0
LKW-4,2018-025A,2026-06-04T00:12:07.348032,15.61191322,.00018857,97.6340,324.8607,6.8865,353.2417,0,U,43236,999,45797,.51597166E-3,.43662E-3,0
ZHUHAI-1 OVS-02,2018-040B,2026-06-04T23:03:35.305056,15.24854443,.00019404,97.0391,173.9169,330.5608,29.5521,0,U,43440,999,45085,.33491167E-3,.8257E-4,0
ZHUHAI-1 OHS-02,2018-040C,2026-06-04T22:51:53.974656,15.25696417,.00072643,97.0375,180.8365,273.8761,86.1648,0,U,43441,999,11241,.37063234E-3,.9386E-4,0
GAOFEN-6,2018-048A,2026-06-04T22:35:33.587808,14.76618157,.00111148,97.7760,219.0740,208.9968,151.0626,0,U,43484,999,43158,.13361425E-3,.885E-5,0
LUOJIA-1 01,2018-048B,2026-06-04T22:18:25.318944,14.87236986,.00094825,97.8105,234.3142,153.1697,207.0012,0,U,43485,999,43239,.14833121E-3,.1283E-4,0
PAKTES 1A,2018-056A,2026-06-04T22:09:21.863808,14.99044770,.00222327,98.1296,311.8859,144.5700,215.7004,0,U,43529,999,43008,.30102745E-3,.3605E-4,0
PRSS-1,2018-056B,2026-06-04T23:15:20.887200,14.81970831,.00017974,97.7821,224.1766,78.5160,281.6255,0,U,43530,999,42662,.17099921E-3,.1305E-4,0
HAIYANG-1C,2018-068A,2026-06-04T23:11:13.676928,14.34174858,.00118043,98.5191,228.4502,127.0097,233.2170,0,U,43609,999,40533,.5723723E-4,.117E-5,0
SSTL S1-4,2018-071A,2026-06-04T21:59:34.697184,14.96172293,.00008986,97.5033,28.0404,103.3664,256.7658,0,U,43618,999,42110,.86289773E-4,.917E-5,0
HAIYANG-2B,2018-081A,2026-06-04T23:26:09.474720,13.79309146,.0000944,99.3284,164.9170,20.4002,339.7188,0,U,43655,999,38324,.27025716E-3,.233E-5,0
CFOSAT,2018-083A,2026-06-03T21:29:46.381344,15.16374708,.0001972,97.3604,159.8194,97.2214,262.9244,0,U,43662,999,42042,.2145E-3,.4099E-4,0
TEN-KOH,2018-084G,2026-06-04T01:46:58.738080,15.02883262,.0010121,98.0775,346.8839,157.1972,202.9703,0,U,43677,999,41419,.2465E-3,.3243E-4,0
DIWATA-2B,2018-084H,2026-06-04T21:34:40.984608,15.00393043,.00117873,98.1152,351.5757,211.2388,148.8135,0,U,43678,999,41437,.27951254E-3,.3451E-4,0
STARS-AO,2018-084J,2026-06-04T01:53:53.846016,15.16899353,.000192,98.0510,8.2434,169.3043,190.8230,0,U,43679,999,41548,.36862E-3,.719E-4,0
AUTCUBE 2,2018-084K,2026-06-04T02:38:27.750624,15.09997779,.00104412,98.0719,0.5915,88.2346,272.0077,0,U,43681,999,41495,.29597378E-3,.4743E-4,0
METOP-C,2018-087A,2026-06-04T21:23:03.514560,14.21508749,.0001284,98.6648,215.7189,142.9406,217.1860,0,U,43689,999,39308,.76329748E-4,.124E-5,0
ES'HAIL 2,2018-090A,2026-06-04T22:14:23.346240,1.00272851,.00019523,0.0171,1.2654,105.4261,146.0622,0,U,43700,999,2755,0,.156E-5,0
MOHAMMED VI-B,2018-095A,2026-06-04T21:58:43.301280,14.77102637,.00011769,97.9556,228.4094,89.9209,270.2136,0,U,43717,999,40637,.1653157E-3,.1117E-4,0
HYSIS,2018-096A,2026-06-04T23:07:13.445184,14.78670826,.0001576,97.9841,222.8061,114.7320,245.4055,0,U,43719,999,40561,.21752416E-3,.1543E-4,0
