ASNARO-2                
1 43152U 18007A   26155.96074892  .00010994  00000+0  47849-3 0  9992
2 43152  97.3975 163.0788 0001827  90.1258 270.0188 15.22405189465551
JILIN-1 07              
1 43159U 18008E   26155.89960751  .00010149  00000+0  30532-3 0  9993
2 43159  97.1773 176.1576 0010240 100.8461 259.3935 15.34509179463113
JILIN-1 08              
1 43160U 18008F   26155.95724572  .00006648  00000+0  20707-3 0  9993
2 43160  97.1806 175.5426 0007937 113.2092 246.9988 15.33560186463075
LEMUR-2-KADI            
1 43184U 18014E   26155.00085063  .05670531  25233-5  13547-2 0  9994
2 43184  97.4308  86.5413 0010751 218.5886 141.4640 16.29437538459008
S-NET D                 
1 43186U 18014G   26155.72810238  .00005903  00000+0  30569-3 0  9998
2 43186  97.5370  60.5972 0009887  67.4587 292.7691 15.16550561456874
S-NET B                 
1 43187U 18014H   26155.67333098  .00006432  00000+0  33300-3 0  9991
2 43187  97.5376  60.5288 0010426  63.4642 296.7659 15.16520086456866
S-NET A                 
1 43188U 18014J   26155.72704580  .00005834  00000+0  30204-3 0  9991
2 43188  97.5386  60.7888 0010387  63.5981 296.6317 15.16558138456879
S-NET C                 
1 43189U 18014K   26155.67714318  .00006393  00000+0  33099-3 0  9992
2 43189  97.5402  60.8120 0011555  56.9894 303.2448 15.16511330455418
PAZ                     
1 43215U 18020A   26155.98724670  .00001198  00000+0  60213-4 0  9992
2 43215  97.4454 163.5465 0001640  85.0671 275.0750 15.19150528459155
GOES 17                 
1 43226U 18022A   26155.90387147 -.00000170  00000+0  00000+0 0  9995
2 43226   0.9062  85.9394 0000737   6.9647  36.3448  1.00271536 30302
LKW-4                   
1 43236U 18025A   26155.00841838  .00043662  00000+0  51597-3 0  9995
2 43236  97.6340 324.8607 0001885   6.8865 353.2417 15.61191322457972
ZHUHAI-1 OVS-02         
1 43440U 18040B   26155.96082529  .00008257  00000+0  33491-3 0  9992
2 43440  97.0391 173.9169 0001940 330.5608  29.5521 15.24854443450857
ZHUHAI-1 OHS-02         
1 43441U 18040C   26155.95270804  .00009386  00000+0  37063-3 0  9990
2 43441  97.0375 180.8365 0007264 273.8761  86.1648 15.25696417112411
GAOFEN-6                
1 43484U 18048A   26155.94136097  .00000885  00000+0  13361-3 0  9999
2 43484  97.7760 219.0740 0011114 208.9968 151.0626 14.76618157431582
LUOJIA-1 01             
1 43485U 18048B   26155.92945971  .00001283  00000+0  14833-3 0  9995
2 43485  97.8105 234.3142 0009482 153.1697 207.0012 14.87236986432397
PAKTES 1A               
1 43529U 18056A   26155.92316972  .00003605  00000+0  30103-3 0  9994
2 43529  98.1296 311.8859 0022232 144.5700 215.7004 14.99044770430086
PRSS-1                  
1 43530U 18056B   26155.96899175  .00001305  00000+0  17100-3 0  9998
2 43530  97.7821 224.1766 0001797  78.5160 281.6255 14.81970831426621
HAIYANG-1C              
1 43609U 18068A   26155.96613052  .00000117  00000+0  57237-4 0  9992
2 43609  98.5191 228.4502 0011804 127.0097 233.2170 14.34174858405338
SSTL S1-4               
1 43618U 18071A   26155.91637381  .00000917  00000+0  86290-4 0  9991
2 43618  97.5033  28.0404 0000898 103.3664 256.7658 14.96172293421108
HAIYANG-2B              
1 43655U 18081A   26155.97649855  .00000233  00000+0  27026-3 0  9990
2 43655  99.3284 164.9170 0000944  20.4002 339.7188 13.79309146383245
CFOSAT                  
1 43662U 18083A   26154.89567571  .00004099  00000+0  21450-3 0  9993
2 43662  97.3604 159.8194 0001972  97.2214 262.9244 15.16374708420426
TEN-KOH                 
1 43677U 18084G   26155.07429095  .00003243  00000+0  24650-3 0  9994
2 43677  98.0775 346.8839 0010121 157.1972 202.9703 15.02883262414192
DIWATA-2B               
1 43678U 18084H   26155.89908547  .00003451  00000+0  27951-3 0  9997
2 43678  98.1152 351.5757 0011787 211.2388 148.8135 15.00393043414375
STARS-AO                
1 43679U 18084J   26155.07909544  .00007190  00000+0  36862-3 0  9991
2 43679  98.0510   8.2434 0001920 169.3043 190.8230 15.16899353415488
AUTCUBE 2               
1 43681U 18084K   26155.11004341  .00004743  00000+0  29597-3 0  9998
2 43681  98.0719   0.5915 0010441  88.2346 272.0077 15.09997779414950
METOP-C                 
1 43689U 18087A   26155.89101290  .00000124  00000+0  76330-4 0  9992
2 43689  98.6648 215.7189 0001284 142.9406 217.1860 14.21508749393086
ES'HAIL 2               
1 43700U 18090A   26155.92665910  .00000156  00000+0  00000+0 0  9999
2 43700   0.0171   1.2654 0001952 105.4261 146.0622  1.00272851 27555
MOHAMMED VI-B           
1 43717U 18095A   26155.91577895  .00001117  00000+0  16532-3 0  9994
2 43717  97.9556 228.4094 0001176  89.9209 270.2136 14.77102637406375
HYSIS                   
1 43719U 18096A   26155.96335006  .00001543  00000+0  21752-3 0  9991
2 43719  97.9841 222.8061 0001576 114.7320 245.4055 14.78670826405612
